{
  "norad_id": 58031,
  "name": "STARLINK-30556",
  "history": [
    {
      "epoch": "2026-03-28T18:44:45.003552",
      "apogee_km": 475.9185212369912,
      "perigee_km": 474.45876287523333,
      "latitude_deg": -1.416047565408921,
      "longitude_deg": 58.083337279967964,
      "semi_major_axis_km": 6853.325642056112,
      "eccentricity": 0.0001065,
      "inclination_deg": 53.1617,
      "raan_deg": 359.7159,
      "arg_perigee_deg": 97.8953,
      "mean_anomaly_deg": 262.2169,
      "mean_motion_rev_day": 15.30208851
    },
    {
      "epoch": "2026-03-29T01:00:59.675904",
      "apogee_km": 476.118123374722,
      "perigee_km": 474.41299681777036,
      "latitude_deg": -45.08312991345921,
      "longitude_deg": 83.16630656016059,
      "semi_major_axis_km": 6853.402560096246,
      "eccentricity": 0.0001244,
      "inclination_deg": 53.162,
      "raan_deg": 358.5068,
      "arg_perigee_deg": 113.4937,
      "mean_anomaly_deg": 246.6195,
      "mean_motion_rev_day": 15.3018309
    }
  ]
}